[
    {
        "CCSDS_OMM_VERS": "3.0",
        "COMMENT": "GENERATED VIA SPACE-TRACK.ORG API",
        "CREATION_DATE": "2025-04-12T22:09:39",
        "ORIGINATOR": "18 SPCS",
        "OBJECT_NAME": "BEIDOU 3M6",
        "OBJECT_ID": "2018-018B",
        "CENTER_NAME": "EARTH",
        "REF_FRAME": "TEME",
        "TIME_SYSTEM": "UTC",
        "MEAN_ELEMENT_THEORY": "SGP4",
        "EPOCH": "2025-04-12T02:14:02.937984",
        "MEAN_MOTION": "1.86231415",
        "ECCENTRICITY": "0.00101900",
        "INCLINATION": "56.2739",
        "RA_OF_ASC_NODE": "77.4085",
        "ARG_OF_PERICENTER": "318.8185",
        "MEAN_ANOMALY": "41.0826",
        "EPHEMERIS_TYPE": "0",
        "CLASSIFICATION_TYPE": "U",
        "NORAD_CAT_ID": "43208",
        "ELEMENT_SET_NO": "999",
        "REV_AT_EPOCH": "4871",
        "BSTAR": "0.00000000000000",
        "MEAN_MOTION_DOT": "-0.00000013",
        "MEAN_MOTION_DDOT": "0.0000000000000",
        "SEMIMAJOR_AXIS": "27906.147",
        "PERIOD": "773.232",
        "APOAPSIS": "21556.448",
        "PERIAPSIS": "21499.576",
        "OBJECT_TYPE": "PAYLOAD",
        "RCS_SIZE": "LARGE",
        "COUNTRY_CODE": "PRC",
        "LAUNCH_DATE": "2018-02-12",
        "SITE": "XSC",
        "DECAY_DATE": null,
        "FILE": "4699941",
        "GP_ID": "285446679",
        "TLE_LINE0": "0 BEIDOU 3M6",
        "TLE_LINE1": "1 43208U 18018B   25102.09308956 -.00000013  00000-0  00000-0 0  9990",
        "TLE_LINE2": "2 43208  56.2739  77.4085 0010190 318.8185  41.0826  1.86231415 48719"
    }
]